[{"COMMENT":"GENERATED VIA SPACETRACK.ORG API","ORIGINATOR":"18 SPCS","NORAD_CAT_ID":"45120","OBJECT_NAME":"VPM","OBJECT_TYPE":"PAYLOAD","CLASSIFICATION_TYPE":"U","INTLDES":"19071K","EPOCH":"2020-07-29 06:14:47","EPOCH_MICROSECONDS":"999328","MEAN_MOTION":"15.3422249","ECCENTRICITY":"0.001133","INCLINATION":"51.6421","RA_OF_ASC_NODE":"160.8489","ARG_OF_PERICENTER":"202.5475","MEAN_ANOMALY":"157.5011","EPHEMERIS_TYPE":"0","ELEMENT_SET_NO":"999","REV_AT_EPOCH":"2743","BSTAR":"0.000090374","MEAN_MOTION_DOT":"0.00002663","MEAN_MOTION_DDOT":"0","FILE":"2793117","TLE_LINE0":"0 VPM","TLE_LINE1":"1 45120U 19071K   20211.26027777 +.00002663 +00000-0 +90374-4 0  9998","TLE_LINE2":"2 45120 051.6421 160.8489 0011330 202.5475 157.5011 15.34222490027430","OBJECT_ID":"2019-071K","OBJECT_NUMBER":"45120","SEMIMAJOR_AXIS":"6841.367","PERIOD":"93.858","APOGEE":"470.984","PERIGEE":"455.481","DECAYED":"0"},{"COMMENT":"GENERATED VIA SPACETRACK.ORG API","ORIGINATOR":"18 SPCS","NORAD_CAT_ID":"45120","OBJECT_NAME":"VPM","OBJECT_TYPE":"PAYLOAD","CLASSIFICATION_TYPE":"U","INTLDES":"19071K","EPOCH":"2020-07-29 14:03:47","EPOCH_MICROSECONDS":"172096","MEAN_MOTION":"15.34224197","ECCENTRICITY":"0.0011316","INCLINATION":"51.6422","RA_OF_ASC_NODE":"159.2735","ARG_OF_PERICENTER":"203.7574","MEAN_ANOMALY":"156.2888","EPHEMERIS_TYPE":"0","ELEMENT_SET_NO":"999","REV_AT_EPOCH":"2748","BSTAR":"0.000084795","MEAN_MOTION_DOT":"0.00002475","MEAN_MOTION_DDOT":"0","FILE":"2793234","TLE_LINE0":"0 VPM","TLE_LINE1":"1 45120U 19071K   20211.58596264  .00002475  00000-0  84795-4 0  9996","TLE_LINE2":"2 45120  51.6422 159.2735 0011316 203.7574 156.2888 15.34224197 27483","OBJECT_ID":"2019-071K","OBJECT_NUMBER":"45120","SEMIMAJOR_AXIS":"6841.362","PERIOD":"93.858","APOGEE":"470.969","PERIGEE":"455.486","DECAYED":"0"},{"COMMENT":"GENERATED VIA SPACETRACK.ORG API","ORIGINATOR":"18 SPCS","NORAD_CAT_ID":"45120","OBJECT_NAME":"VPM","OBJECT_TYPE":"PAYLOAD","CLASSIFICATION_TYPE":"U","INTLDES":"19071K","EPOCH":"2020-07-30 05:41:45","EPOCH_MICROSECONDS":"438144","MEAN_MOTION":"15.34227437","ECCENTRICITY":"0.0011289","INCLINATION":"51.6422","RA_OF_ASC_NODE":"156.1227","ARG_OF_PERICENTER":"206.0944","MEAN_ANOMALY":"153.9471","EPHEMERIS_TYPE":"0","ELEMENT_SET_NO":"999","REV_AT_EPOCH":"2758","BSTAR":"0.000076121","MEAN_MOTION_DOT":"0.00002183","MEAN_MOTION_DDOT":"0","FILE":"2793711","TLE_LINE0":"0 VPM","TLE_LINE1":"1 45120U 19071K   20212.23733146 +.00002183 +00000-0 +76121-4 0  9991","TLE_LINE2":"2 45120 051.6422 156.1227 0011289 206.0944 153.9471 15.34227437027584","OBJECT_ID":"2019-071K","OBJECT_NUMBER":"45120","SEMIMAJOR_AXIS":"6841.353","PERIOD":"93.858","APOGEE":"470.941","PERIGEE":"455.494","DECAYED":"0"},{"COMMENT":"GENERATED VIA SPACETRACK.ORG API","ORIGINATOR":"18 SPCS","NORAD_CAT_ID":"45120","OBJECT_NAME":"VPM","OBJECT_TYPE":"PAYLOAD","CLASSIFICATION_TYPE":"U","INTLDES":"19071K","EPOCH":"2020-07-30 19:45:55","EPOCH_MICROSECONDS":"774080","MEAN_MOTION":"15.34230164","ECCENTRICITY":"0.0011278","INCLINATION":"51.6423","RA_OF_ASC_NODE":"153.287","ARG_OF_PERICENTER":"208.2417","MEAN_ANOMALY":"151.7954","EPHEMERIS_TYPE":"0","ELEMENT_SET_NO":"999","REV_AT_EPOCH":"2767","BSTAR":"0.000068574","MEAN_MOTION_DOT":"0.00001928","MEAN_MOTION_DDOT":"0","FILE":"2793879","TLE_LINE0":"0 VPM","TLE_LINE1":"1 45120U 19071K   20212.82356220 +.00001928 +00000-0 +68574-4 0  9999","TLE_LINE2":"2 45120 051.6423 153.2870 0011278 208.2417 151.7954 15.34230164027677","OBJECT_ID":"2019-071K","OBJECT_NUMBER":"45120","SEMIMAJOR_AXIS":"6841.345","PERIOD":"93.858","APOGEE":"470.925","PERIGEE":"455.494","DECAYED":"0"},{"COMMENT":"GENERATED VIA SPACETRACK.ORG API","ORIGINATOR":"18 SPCS","NORAD_CAT_ID":"45120","OBJECT_NAME":"VPM","OBJECT_TYPE":"PAYLOAD","CLASSIFICATION_TYPE":"U","INTLDES":"19071K","EPOCH":"2020-07-31 02:01:07","EPOCH_MICROSECONDS":"320","MEAN_MOTION":"15.34231553","ECCENTRICITY":"0.0011254","INCLINATION":"51.6423","RA_OF_ASC_NODE":"152.0269","ARG_OF_PERICENTER":"209.1955","MEAN_ANOMALY":"150.8399","EPHEMERIS_TYPE":"0","ELEMENT_SET_NO":"999","REV_AT_EPOCH":"2771","BSTAR":"0.000067125","MEAN_MOTION_DOT":"0.0000188","MEAN_MOTION_DDOT":"0","FILE":"2793999","TLE_LINE0":"0 VPM","TLE_LINE1":"1 45120U 19071K   20213.08410880  .00001880  00000-0  67125-4 0  9999","TLE_LINE2":"2 45120  51.6423 152.0269 0011254 209.1955 150.8399 15.34231553 27718","OBJECT_ID":"2019-071K","OBJECT_NUMBER":"45120","SEMIMAJOR_AXIS":"6841.340","PERIOD":"93.858","APOGEE":"470.905","PERIGEE":"455.506","DECAYED":"0"},{"COMMENT":"GENERATED VIA SPACETRACK.ORG API","ORIGINATOR":"18 SPCS","NORAD_CAT_ID":"45120","OBJECT_NAME":"VPM","OBJECT_TYPE":"PAYLOAD","CLASSIFICATION_TYPE":"U","INTLDES":"19071K","EPOCH":"2020-07-31 05:08:42","EPOCH_MICROSECONDS":"610848","MEAN_MOTION":"15.3423204","ECCENTRICITY":"0.0011244","INCLINATION":"51.6423","RA_OF_ASC_NODE":"151.3967","ARG_OF_PERICENTER":"209.6424","MEAN_ANOMALY":"150.3922","EPHEMERIS_TYPE":"0","ELEMENT_SET_NO":"999","REV_AT_EPOCH":"2773","BSTAR":"0.000064915","MEAN_MOTION_DOT":"0.00001805","MEAN_MOTION_DDOT":"0","FILE":"2794255","TLE_LINE0":"0 VPM","TLE_LINE1":"1 45120U 19071K   20213.21438207 +.00001805 +00000-0 +64915-4 0  9998","TLE_LINE2":"2 45120 051.6423 151.3967 0011244 209.6424 150.3922 15.34232040027731","OBJECT_ID":"2019-071K","OBJECT_NUMBER":"45120","SEMIMAJOR_AXIS":"6841.339","PERIOD":"93.858","APOGEE":"470.896","PERIGEE":"455.512","DECAYED":"0"},{"COMMENT":"GENERATED VIA SPACETRACK.ORG API","ORIGINATOR":"18 SPCS","NORAD_CAT_ID":"45120","OBJECT_NAME":"VPM","OBJECT_TYPE":"PAYLOAD","CLASSIFICATION_TYPE":"U","INTLDES":"19071K","EPOCH":"2020-07-31 19:12:52","EPOCH_MICROSECONDS":"797312","MEAN_MOTION":"15.34235787","ECCENTRICITY":"0.0011235","INCLINATION":"51.6424","RA_OF_ASC_NODE":"148.561","ARG_OF_PERICENTER":"211.8067","MEAN_ANOMALY":"148.2238","EPHEMERIS_TYPE":"0","ELEMENT_SET_NO":"999","REV_AT_EPOCH":"2782","BSTAR":"0.000071327","MEAN_MOTION_DOT":"0.00002022","MEAN_MOTION_DDOT":"0","FILE":"2794480","TLE_LINE0":"0 VPM","TLE_LINE1":"1 45120U 19071K   20213.80061108 +.00002022 +00000-0 +71327-4 0  9992","TLE_LINE2":"2 45120 051.6424 148.5610 0011235 211.8067 148.2238 15.34235787027820","OBJECT_ID":"2019-071K","OBJECT_NUMBER":"45120","SEMIMAJOR_AXIS":"6841.328","PERIOD":"93.857","APOGEE":"470.879","PERIGEE":"455.507","DECAYED":"0"},{"COMMENT":"GENERATED VIA SPACETRACK.ORG API","ORIGINATOR":"18 SPCS","NORAD_CAT_ID":"45120","OBJECT_NAME":"VPM","OBJECT_TYPE":"PAYLOAD","CLASSIFICATION_TYPE":"U","INTLDES":"19071K","EPOCH":"2020-08-01 04:35:39","EPOCH_MICROSECONDS":"563232","MEAN_MOTION":"15.34237068","ECCENTRICITY":"0.0011208","INCLINATION":"51.6425","RA_OF_ASC_NODE":"146.6707","ARG_OF_PERICENTER":"213.1811","MEAN_ANOMALY":"146.847","EPHEMERIS_TYPE":"0","ELEMENT_SET_NO":"999","REV_AT_EPOCH":"2788","BSTAR":"0.000066202","MEAN_MOTION_DOT":"0.00001849","MEAN_MOTION_DDOT":"0","FILE":"2794821","TLE_LINE0":"0 VPM","TLE_LINE1":"1 45120U 19071K   20214.19143013 +.00001849 +00000-0 +66202-4 0  9993","TLE_LINE2":"2 45120 051.6425 146.6707 0011208 213.1811 146.8470 15.34237068027881","OBJECT_ID":"2019-071K","OBJECT_NUMBER":"45120","SEMIMAJOR_AXIS":"6841.324","PERIOD":"93.857","APOGEE":"470.857","PERIGEE":"455.521","DECAYED":"0"},{"COMMENT":"GENERATED VIA SPACETRACK.ORG API","ORIGINATOR":"18 SPCS","NORAD_CAT_ID":"45120","OBJECT_NAME":"VPM","OBJECT_TYPE":"PAYLOAD","CLASSIFICATION_TYPE":"U","INTLDES":"19071K","EPOCH":"2020-08-01 04:35:39","EPOCH_MICROSECONDS":"563232","MEAN_MOTION":"15.34237068","ECCENTRICITY":"0.0011208","INCLINATION":"51.6425","RA_OF_ASC_NODE":"146.6707","ARG_OF_PERICENTER":"213.1811","MEAN_ANOMALY":"146.847","EPHEMERIS_TYPE":"0","ELEMENT_SET_NO":"999","REV_AT_EPOCH":"2788","BSTAR":"0.000066202","MEAN_MOTION_DOT":"0.00001849","MEAN_MOTION_DDOT":"0","FILE":"2794775","TLE_LINE0":"0 VPM","TLE_LINE1":"1 45120U 19071K   20214.19143013  .00001849  00000-0  66202-4 0  9993","TLE_LINE2":"2 45120  51.6425 146.6707 0011208 213.1811 146.8470 15.34237068 27881","OBJECT_ID":"2019-071K","OBJECT_NUMBER":"45120","SEMIMAJOR_AXIS":"6841.324","PERIOD":"93.857","APOGEE":"470.857","PERIGEE":"455.521","DECAYED":"0"},{"COMMENT":"GENERATED VIA SPACETRACK.ORG API","ORIGINATOR":"18 SPCS","NORAD_CAT_ID":"45120","OBJECT_NAME":"VPM","OBJECT_TYPE":"PAYLOAD","CLASSIFICATION_TYPE":"U","INTLDES":"19071K","EPOCH":"2020-08-02 04:02:36","EPOCH_MICROSECONDS":"348000","MEAN_MOTION":"15.34241268","ECCENTRICITY":"0.0011159","INCLINATION":"51.6427","RA_OF_ASC_NODE":"141.9447","ARG_OF_PERICENTER":"216.6713","MEAN_ANOMALY":"143.3506","EPHEMERIS_TYPE":"0","ELEMENT_SET_NO":"999","REV_AT_EPOCH":"2803","BSTAR":"0.00006833","MEAN_MOTION_DOT":"0.00001921","MEAN_MOTION_DDOT":"0","FILE":"2795041","TLE_LINE0":"0 VPM","TLE_LINE1":"1 45120U 19071K   20215.16847625 +.00001921 +00000-0 +68330-4 0  9996","TLE_LINE2":"2 45120 051.6427 141.9447 0011159 216.6713 143.3506 15.34241268028033","OBJECT_ID":"2019-071K","OBJECT_NUMBER":"45120","SEMIMAJOR_AXIS":"6841.312","PERIOD":"93.857","APOGEE":"470.811","PERIGEE":"455.542","DECAYED":"0"},{"COMMENT":"GENERATED VIA SPACETRACK.ORG API","ORIGINATOR":"18 SPCS","NORAD_CAT_ID":"45120","OBJECT_NAME":"VPM","OBJECT_TYPE":"PAYLOAD","CLASSIFICATION_TYPE":"U","INTLDES":"19071K","EPOCH":"2020-08-02 19:40:34","EPOCH_MICROSECONDS":"60224","MEAN_MOTION":"15.34245306","ECCENTRICITY":"0.0011154","INCLINATION":"51.6427","RA_OF_ASC_NODE":"138.7941","ARG_OF_PERICENTER":"219.0879","MEAN_ANOMALY":"140.9298","EPHEMERIS_TYPE":"0","ELEMENT_SET_NO":"999","REV_AT_EPOCH":"2813","BSTAR":"0.000081874","MEAN_MOTION_DOT":"0.00002378","MEAN_MOTION_DDOT":"0","FILE":"2795042","TLE_LINE0":"0 VPM","TLE_LINE1":"1 45120U 19071K   20215.81983866 +.00002378 +00000-0 +81874-4 0  9991","TLE_LINE2":"2 45120 051.6427 138.7941 0011154 219.0879 140.9298 15.34245306028130","OBJECT_ID":"2019-071K","OBJECT_NUMBER":"45120","SEMIMAJOR_AXIS":"6841.300","PERIOD":"93.857","APOGEE":"470.795","PERIGEE":"455.534","DECAYED":"0"}]